CCSDS_OMM_VERS = 2.0
CREATION_DATE  = 
ORIGINATOR     = 

OBJECT_NAME    = SL-3 R/B
OBJECT_ID      = 1982-039B
CENTER_NAME    = EARTH
REF_FRAME      = TEME
TIME_SYSTEM    = UTC
MEAN_ELEMENT_THEORY = SGP/SGP4

EPOCH          = 2025-10-27T19:54:50.915808
MEAN_MOTION    = 15.09163102
ECCENTRICITY   = .0032868
INCLINATION    = 81.1843
RA_OF_ASC_NODE = 8.8691
ARG_OF_PERICENTER = 40.5271
MEAN_ANOMALY   = 319.8392

EPHEMERIS_TYPE = 0
CLASSIFICATION_TYPE = U
NORAD_CAT_ID   = 13154
ELEMENT_SET_NO = 999
REV_AT_EPOCH   = 36159
BSTAR          = .20024E-3
MEAN_MOTION_DOT = .3242E-4
MEAN_MOTION_DDOT = 0

CCSDS_OMM_VERS = 2.0
CREATION_DATE  = 
ORIGINATOR     = 

OBJECT_NAME    = SL-3 R/B
OBJECT_ID      = 1982-079B
CENTER_NAME    = EARTH
REF_FRAME      = TEME
TIME_SYSTEM    = UTC
MEAN_ELEMENT_THEORY = SGP/SGP4

EPOCH          = 2025-10-27T19:53:27.182976
MEAN_MOTION    = 15.22887075
ECCENTRICITY   = .002455
INCLINATION    = 81.1484
RA_OF_ASC_NODE = 349.7549
ARG_OF_PERICENTER = 253.7449
MEAN_ANOMALY   = 106.1083

EPHEMERIS_TYPE = 0
CLASSIFICATION_TYPE = U
NORAD_CAT_ID   = 13403
ELEMENT_SET_NO = 999
REV_AT_EPOCH   = 35746
BSTAR          = .28547E-3
MEAN_MOTION_DOT = .677E-4
MEAN_MOTION_DDOT = 0

CCSDS_OMM_VERS = 2.0
CREATION_DATE  = 
ORIGINATOR     = 

OBJECT_NAME    = SL-14 R/B
OBJECT_ID      = 1982-092B
CENTER_NAME    = EARTH
REF_FRAME      = TEME
TIME_SYSTEM    = UTC
MEAN_ELEMENT_THEORY = SGP/SGP4

EPOCH          = 2025-10-27T10:44:48.617088
MEAN_MOTION    = 14.86473449
ECCENTRICITY   = .0021218
INCLINATION    = 82.5658
RA_OF_ASC_NODE = 266.0047
ARG_OF_PERICENTER = 27.5078
MEAN_ANOMALY   = 94.2570

EPHEMERIS_TYPE = 0
CLASSIFICATION_TYPE = U
NORAD_CAT_ID   = 13553
ELEMENT_SET_NO = 999
REV_AT_EPOCH   = 30913
BSTAR          = .1062E-3
MEAN_MOTION_DOT = .967E-5
MEAN_MOTION_DDOT = 0

CCSDS_OMM_VERS = 2.0
CREATION_DATE  = 
ORIGINATOR     = 

OBJECT_NAME    = SL-3 R/B
OBJECT_ID      = 1983-010B
CENTER_NAME    = EARTH
REF_FRAME      = TEME
TIME_SYSTEM    = UTC
MEAN_ELEMENT_THEORY = SGP/SGP4

EPOCH          = 2025-10-27T03:12:22.788576
MEAN_MOTION    = 15.41820167
ECCENTRICITY   = .00179675
INCLINATION    = 81.1045
RA_OF_ASC_NODE = 165.4336
ARG_OF_PERICENTER = 148.0018
MEAN_ANOMALY   = 212.2319

EPHEMERIS_TYPE = 0
CLASSIFICATION_TYPE = U
NORAD_CAT_ID   = 13819
ELEMENT_SET_NO = 999
REV_AT_EPOCH   = 33733
BSTAR          = .3000041E-3
MEAN_MOTION_DOT = .12817E-3
MEAN_MOTION_DDOT = 0

CCSDS_OMM_VERS = 2.0
CREATION_DATE  = 
ORIGINATOR     = 

OBJECT_NAME    = SL-3 R/B
OBJECT_ID      = 1983-075B
CENTER_NAME    = EARTH
REF_FRAME      = TEME
TIME_SYSTEM    = UTC
MEAN_ELEMENT_THEORY = SGP/SGP4

EPOCH          = 2025-10-27T20:14:35.556576
MEAN_MOTION    = 15.34794831
ECCENTRICITY   = .0023017
INCLINATION    = 97.6108
RA_OF_ASC_NODE = 295.8324
ARG_OF_PERICENTER = 349.7329
MEAN_ANOMALY   = 10.3441

EPHEMERIS_TYPE = 0
CLASSIFICATION_TYPE = U
NORAD_CAT_ID   = 14208
ELEMENT_SET_NO = 999
REV_AT_EPOCH   = 30975
BSTAR          = .39661E-3
MEAN_MOTION_DOT = .13416E-3
MEAN_MOTION_DDOT = 0

CCSDS_OMM_VERS = 2.0
CREATION_DATE  = 
ORIGINATOR     = 

OBJECT_NAME    = COSMOS 1536
OBJECT_ID      = 1984-013A
CENTER_NAME    = EARTH
REF_FRAME      = TEME
TIME_SYSTEM    = UTC
MEAN_ELEMENT_THEORY = SGP/SGP4

EPOCH          = 2025-10-27T20:30:15.395040
MEAN_MOTION    = 15.21657619
ECCENTRICITY   = .0016721
INCLINATION    = 82.5458
RA_OF_ASC_NODE = 239.6350
ARG_OF_PERICENTER = 36.2289
MEAN_ANOMALY   = 324.0075

EPHEMERIS_TYPE = 0
CLASSIFICATION_TYPE = U
NORAD_CAT_ID   = 14699
ELEMENT_SET_NO = 999
REV_AT_EPOCH   = 25240
BSTAR          = .47095E-3
MEAN_MOTION_DOT = .10718E-3
MEAN_MOTION_DDOT = 0

CCSDS_OMM_VERS = 2.0
CREATION_DATE  = 
ORIGINATOR     = 

OBJECT_NAME    = SL-14 R/B
OBJECT_ID      = 1984-027B
CENTER_NAME    = EARTH
REF_FRAME      = TEME
TIME_SYSTEM    = UTC
MEAN_ELEMENT_THEORY = SGP/SGP4

EPOCH          = 2025-10-27T06:58:13.432800
MEAN_MOTION    = 14.85804954
ECCENTRICITY   = .0019298
INCLINATION    = 82.5449
RA_OF_ASC_NODE = 10.1107
ARG_OF_PERICENTER = 58.0740
MEAN_ANOMALY   = 302.2350

EPHEMERIS_TYPE = 0
CLASSIFICATION_TYPE = U
NORAD_CAT_ID   = 14820
ELEMENT_SET_NO = 999
REV_AT_EPOCH   = 22782
BSTAR          = .74659E-4
MEAN_MOTION_DOT = .676E-5
MEAN_MOTION_DDOT = 0

CCSDS_OMM_VERS = 2.0
CREATION_DATE  = 
ORIGINATOR     = 

OBJECT_NAME    = SL-8 R/B
OBJECT_ID      = 1985-006B
CENTER_NAME    = EARTH
REF_FRAME      = TEME
TIME_SYSTEM    = UTC
MEAN_ELEMENT_THEORY = SGP/SGP4

EPOCH          = 2025-10-27T01:42:16.155648
MEAN_MOTION    = 14.37679349
ECCENTRICITY   = .00174084
INCLINATION    = 74.0438
RA_OF_ASC_NODE = 146.9956
ARG_OF_PERICENTER = 95.2155
MEAN_ANOMALY   = 18.9696

EPHEMERIS_TYPE = 0
CLASSIFICATION_TYPE = U
NORAD_CAT_ID   = 15483
ELEMENT_SET_NO = 999
REV_AT_EPOCH   = 13482
BSTAR          = .96084338E-4
MEAN_MOTION_DOT = .263E-5
MEAN_MOTION_DDOT = 0

CCSDS_OMM_VERS = 2.0
CREATION_DATE  = 
ORIGINATOR     = 

OBJECT_NAME    = SL-12 R/B(2)
OBJECT_ID      = 1985-042D
CENTER_NAME    = EARTH
REF_FRAME      = TEME
TIME_SYSTEM    = UTC
MEAN_ELEMENT_THEORY = SGP/SGP4

EPOCH          = 2025-10-27T16:33:48.633408
MEAN_MOTION    = 14.21930518
ECCENTRICITY   = .003649
INCLINATION    = 71.1102
RA_OF_ASC_NODE = 8.7056
ARG_OF_PERICENTER = 329.4002
MEAN_ANOMALY   = 204.4396

EPHEMERIS_TYPE = 0
CLASSIFICATION_TYPE = U
NORAD_CAT_ID   = 15772
ELEMENT_SET_NO = 999
REV_AT_EPOCH   = 9548
BSTAR          = .11822E-3
MEAN_MOTION_DOT = .215E-5
MEAN_MOTION_DDOT = 0

CCSDS_OMM_VERS = 2.0
CREATION_DATE  = 
ORIGINATOR     = 

OBJECT_NAME    = SL-14 R/B
OBJECT_ID      = 1985-069B
CENTER_NAME    = EARTH
REF_FRAME      = TEME
TIME_SYSTEM    = UTC
MEAN_ELEMENT_THEORY = SGP/SGP4

EPOCH          = 2025-10-27T14:02:01.491072
MEAN_MOTION    = 14.86246107
ECCENTRICITY   = .0017341
INCLINATION    = 82.5260
RA_OF_ASC_NODE = 150.0953
ARG_OF_PERICENTER = 273.9950
MEAN_ANOMALY   = 85.9284

EPHEMERIS_TYPE = 0
CLASSIFICATION_TYPE = U
NORAD_CAT_ID   = 15945
ELEMENT_SET_NO = 999
REV_AT_EPOCH   = 15306
BSTAR          = .67859E-4
MEAN_MOTION_DOT = .622E-5
MEAN_MOTION_DDOT = 0

CCSDS_OMM_VERS = 2.0
CREATION_DATE  = 
ORIGINATOR     = 

OBJECT_NAME    = SL-16 R/B
OBJECT_ID      = 1985-097B
CENTER_NAME    = EARTH
REF_FRAME      = TEME
TIME_SYSTEM    = UTC
MEAN_ELEMENT_THEORY = SGP/SGP4

EPOCH          = 2025-10-27T14:07:13.154016
MEAN_MOTION    = 14.16574156
ECCENTRICITY   = .0005291
INCLINATION    = 71.0034
RA_OF_ASC_NODE = 60.7609
ARG_OF_PERICENTER = 103.0630
MEAN_ANOMALY   = 268.0807

EPHEMERIS_TYPE = 0
CLASSIFICATION_TYPE = U
NORAD_CAT_ID   = 16182
ELEMENT_SET_NO = 999
REV_AT_EPOCH   = 6838
BSTAR          = .17976E-3
MEAN_MOTION_DOT = .311E-5
MEAN_MOTION_DDOT = 0

CCSDS_OMM_VERS = 2.0
CREATION_DATE  = 
ORIGINATOR     = 

OBJECT_NAME    = SL-14 R/B
OBJECT_ID      = 1986-006B
CENTER_NAME    = EARTH
REF_FRAME      = TEME
TIME_SYSTEM    = UTC
MEAN_ELEMENT_THEORY = SGP/SGP4

EPOCH          = 2025-10-27T15:52:07.610016
MEAN_MOTION    = 14.86579157
ECCENTRICITY   = .0076676
INCLINATION    = 82.5301
RA_OF_ASC_NODE = 24.8983
ARG_OF_PERICENTER = 354.8247
MEAN_ANOMALY   = 5.2167

EPHEMERIS_TYPE = 0
CLASSIFICATION_TYPE = U
NORAD_CAT_ID   = 16496
ELEMENT_SET_NO = 999
REV_AT_EPOCH   = 12944
BSTAR          = .85779E-4
MEAN_MOTION_DOT = .828E-5
MEAN_MOTION_DDOT = 0

