SL-3 R/B                
1 13154U 82039B   25300.82975597  .00003242  00000+0  20024-3 0  9999
2 13154  81.1843   8.8691 0032868  40.5271 319.8392 15.09163102361596
SL-3 R/B                
1 13403U 82079B   25300.82878684  .00006770  00000+0  28547-3 0  9996
2 13403  81.1484 349.7549 0024550 253.7449 106.1083 15.22887075357469
SL-14 R/B               
1 13553U 82092B   25300.44778492  .00000967  00000+0  10620-3 0  9996
2 13553  82.5658 266.0047 0021218  27.5078  94.2570 14.86473449309134
SL-3 R/B                
1 13819U 83010B   25300.13359709  .00012817  00000+0  30000-3 0  9995
2 13819  81.1045 165.4336 0017967 148.0018 212.2319 15.41820167337337
SL-3 R/B                
1 14208U 83075B   25300.84346709  .00013416  00000+0  39661-3 0  9991
2 14208  97.6108 295.8324 0023017 349.7329  10.3441 15.34794831309753
COSMOS 1536             
1 14699U 84013A   25300.85434485  .00010718  00000+0  47095-3 0  9990
2 14699  82.5458 239.6350 0016721  36.2289 324.0075 15.21657619252405
SL-14 R/B               
1 14820U 84027B   25300.29043325  .00000676  00000+0  74659-4 0  9997
2 14820  82.5449  10.1107 0019298  58.0740 302.2350 14.85804954227826
SL-8 R/B                
1 15483U 85006B   25300.07102032  .00000263  00000+0  96084-4 0  9996
2 15483  74.0438 146.9956 0017408  95.2155  18.9696 14.37679349134826
SL-12 R/B(2)            
1 15772U 85042D   25300.69014622  .00000215  00000+0  11822-3 0  9995
2 15772  71.1102   8.7056 0036490 329.4002 204.4396 14.21930518 95482
SL-14 R/B               
1 15945U 85069B   25300.58473948  .00000622  00000+0  67859-4 0  9998
2 15945  82.5260 150.0953 0017341 273.9950  85.9284 14.86246107153063
SL-16 R/B               
1 16182U 85097B   25300.58834669  .00000311  00000+0  17976-3 0  9993
2 16182  71.0034  60.7609 0005291 103.0630 268.0807 14.16574156 68389
SL-14 R/B               
1 16496U 86006B   25300.66119919  .00000828  00000+0  85779-4 0  9995
2 16496  82.5301  24.8983 0076676 354.8247   5.2167 14.86579157129440
